0 TITAN 3C TRANSTAGE DEB
1 34169U 65108DC  13279.14327258  .00000742  00000-0  54008-3 0  2555
2 34169 028.2402 118.2751 6933378 194.1011 345.1487 02.67461155101117
0 TITAN 3C TRANSTAGE DEB
1 34169U 65108DC  13285.87926844  .00000388  00000-0  65894-3 0  2571
2 34169 028.2573 115.3642 6932548 198.8638 351.0308 02.67471140101299
0 TITAN 3C TRANSTAGE DEB
1 34169U 65108DC  13292.23686641  .00000923  00000-0  79358-3 0  2583
2 34169 028.2632 112.6251 6932091 203.3580 352.8095 02.67482079101466
